[{"OBJECT_NAME":"GAOFEN-14 01","OBJECT_ID":"2020-092A","EPOCH":"2026-03-09T23:18:15.156000","MEAN_MOTION":15.25725011,"ECCENTRICITY":0.0008015,"INCLINATION":97.4817,"RA_OF_ASC_NODE":139.2507,"ARG_OF_PERICENTER":138.8844,"MEAN_ANOMALY":221.2999,"EPHEMERIS_TYPE":0,"CLASSIFICATION_TYPE":"U","NORAD_CAT_ID":47231,"ELEMENT_SET_NO":999,"REV_AT_EPOCH":29270,"BSTAR":0.00022250672,"MEAN_MOTION_DOT":5.605e-5,"MEAN_MOTION_DDOT":0},{"OBJECT_NAME":"STARLINK-32302","OBJECT_ID":"2024-191A","EPOCH":"2026-03-09T06:13:46.536096","MEAN_MOTION":15.27558857,"ECCENTRICITY":0.00014679,"INCLINATION":42.9981,"RA_OF_ASC_NODE":156.6717,"ARG_OF_PERICENTER":319.6331,"MEAN_ANOMALY":40.4412,"EPHEMERIS_TYPE":0,"CLASSIFICATION_TYPE":"U","NORAD_CAT_ID":61621,"ELEMENT_SET_NO":999,"REV_AT_EPOCH":7822,"BSTAR":4.2096458e-5,"MEAN_MOTION_DOT":8.96e-6,"MEAN_MOTION_DDOT":0}]
